{
  "type": "FeatureCollection",
  "features": [
    {
      "type": "Feature",
      "properties": {
        "norad_id": 66877,
        "name": "ZQ-3 R/B",
        "group": "last-30-days",
        "lat": 42.88421736873685,
        "lon": 59.137665903462604,
        "alt_km": 1122.849565978272,
        "timestamp": "2025-12-21T22:41:40.166233+00:00",
        "meta_object_name": "ZQ-3 R/B",
        "meta_object_id": "2025-282A",
        "meta_epoch": "2025-12-21T11:03:12.672576",
        "meta_mean_motion": 14.77070822,
        "meta_eccentricity": 0.07063528,
        "meta_inclination": 56.9491,
        "meta_ra_of_asc_node": 23.8366,
        "meta_arg_of_pericenter": 235.2806,
        "meta_mean_anomaly": 117.9737,
        "meta_ephemeris_type": 0,
        "meta_classification_type": "U",
        "meta_norad_cat_id": 66877,
        "meta_element_set_no": 999,
        "meta_rev_at_epoch": 267,
        "meta_bstar": 0.00016829547,
        "meta_mean_motion_dot": 0.00946982,
        "meta_mean_motion_ddot": 7.791207e-06,
        "tle_line1": "1 66877U 25282A   25355.46056334  .00946982  77912-5  16830-3 0  9994",
        "tle_line2": "2 66877  56.9491  23.8366 0706352 235.2806 117.9737 14.77070822  2675"
      },
      "geometry": {
        "type": "Point",
        "coordinates": [
          59.137665903462604,
          42.88421736873685
        ]
      }
    },
    {
      "type": "Feature",
      "properties": {
        "norad_id": 66878,
        "name": "STARLINK-35866",
        "group": "last-30-days",
        "lat": 44.647546817554385,
        "lon": 159.94672094412908,
        "alt_km": 340.40546154815,
        "timestamp": "2025-12-21T22:41:40.166243+00:00",
        "meta_object_name": "STARLINK-35866",
        "meta_object_id": "2025-283A",
        "meta_epoch": "2025-12-21T14:00:01.999872",
        "meta_mean_motion": 15.7418596,
        "meta_eccentricity": 0.00010475,
        "meta_inclination": 53.1574,
        "meta_ra_of_asc_node": 29.5305,
        "meta_arg_of_pericenter": 85.3614,
        "meta_mean_anomaly": 139.0719,
        "meta_ephemeris_type": 0,
        "meta_classification_type": "U",
        "meta_norad_cat_id": 66878,
        "meta_element_set_no": 999,
        "meta_rev_at_epoch": 385,
        "meta_bstar": -2.5389764e-05,
        "meta_mean_motion_dot": -4.345e-05,
        "meta_mean_motion_ddot": 0,
        "tle_line1": "1 66878U 25283A   25355.58335648 -.00004345  00000+0 -25390-4 0  9997",
        "tle_line2": "2 66878  53.1574  29.5305 0001047  85.3614 139.0719 15.74185960  3857"
      },
      "geometry": {
        "type": "Point",
        "coordinates": [
          159.94672094412908,
          44.647546817554385
        ]
      }
    },
    {
      "type": "Feature",
      "properties": {
        "norad_id": 66879,
        "name": "STARLINK-35749",
        "group": "last-30-days",
        "lat": 42.4968710254229,
        "lon": 164.33140514425637,
        "alt_km": 340.74825105021046,
        "timestamp": "2025-12-21T22:41:40.166254+00:00",
        "meta_object_name": "STARLINK-35749",
        "meta_object_id": "2025-283B",
        "meta_epoch": "2025-12-21T14:00:01.999872",
        "meta_mean_motion": 15.7418593,
        "meta_eccentricity": 0.00011387,
        "meta_inclination": 53.1573,
        "meta_ra_of_asc_node": 29.5224,
        "meta_arg_of_pericenter": 80.7602,
        "meta_mean_anomaly": 147.5062,
        "meta_ephemeris_type": 0,
        "meta_classification_type": "U",
        "meta_norad_cat_id": 66879,
        "meta_element_set_no": 999,
        "meta_rev_at_epoch": 385,
        "meta_bstar": -3.2817488e-05,
        "meta_mean_motion_dot": -5.432e-05,
        "meta_mean_motion_ddot": 0,
        "tle_line1": "1 66879U 25283B   25355.58335648 -.00005432  00000+0 -32817-4 0  9998",
        "tle_line2": "2 66879  53.1573  29.5224 0001138  80.7602 147.5062 15.74185930  3856"
      },
      "geometry": {
        "type": "Point",
        "coordinates": [
          164.33140514425637,
          42.4968710254229
        ]
      }
    },
    {
      "type": "Feature",
      "properties": {
        "norad_id": 66880,
        "name": "STARLINK-35844",
        "group": "last-30-days",
        "lat": 43.5908322314043,
        "lon": 162.18291281892294,
        "alt_km": 340.54245314684704,
        "timestamp": "2025-12-21T22:41:40.166264+00:00",
        "meta_object_name": "STARLINK-35844",
        "meta_object_id": "2025-283C",
        "meta_epoch": "2025-12-21T14:00:01.999872",
        "meta_mean_motion": 15.74186767,
        "meta_eccentricity": 0.00011136,
        "meta_inclination": 53.1572,
        "meta_ra_of_asc_node": 29.5265,
        "meta_arg_of_pericenter": 82.7186,
        "meta_mean_anomaly": 143.6302,
        "meta_ephemeris_type": 0,
        "meta_classification_type": "U",
        "meta_norad_cat_id": 66880,
        "meta_element_set_no": 999,
        "meta_rev_at_epoch": 385,
        "meta_bstar": 2.6293295e-05,
        "meta_mean_motion_dot": 3.223e-05,
        "meta_mean_motion_ddot": 0,
        "tle_line1": "1 66880U 25283C   25355.58335648  .00003223  00000+0  26293-4 0  9995",
        "tle_line2": "2 66880  53.1572  29.5265 0001113  82.7186 143.6302 15.74186767  3857"
      },
      "geometry": {
        "type": "Point",
        "coordinates": [
          162.18291281892294,
          43.5908322314043
        ]
      }
    },
    {
      "type": "Feature",
      "properties": {
        "norad_id": 66881,
        "name": "STARLINK-35860",
        "group": "last-30-days",
        "lat": 41.364165702978525,
        "lon": 166.40367753648755,
        "alt_km": 340.901648635142,
        "timestamp": "2025-12-21T22:41:40.166274+00:00",
        "meta_object_name": "STARLINK-35860",
        "meta_object_id": "2025-283D",
        "meta_epoch": "2025-12-21T14:00:01.999872",
        "meta_mean_motion": 15.74178438,
        "meta_eccentricity": 0.00010658,
        "meta_inclination": 53.1571,
        "meta_ra_of_asc_node": 29.5182,
        "meta_arg_of_pericenter": 89.0129,
        "meta_mean_anomaly": 141.1705,
        "meta_ephemeris_type": 0,
        "meta_classification_type": "U",
        "meta_norad_cat_id": 66881,
        "meta_element_set_no": 999,
        "meta_rev_at_epoch": 385,
        "meta_bstar": 7.0298364e-05,
        "meta_mean_motion_dot": 9.673e-05,
        "meta_mean_motion_ddot": 0,
        "tle_line1": "1 66881U 25283D   25355.58335648  .00009673  00000+0  70298-4 0  9995",
        "tle_line2": "2 66881  53.1571  29.5182 0001065  89.0129 141.1705 15.74178438  3854"
      },
      "geometry": {
        "type": "Point",
        "coordinates": [
          166.40367753648755,
          41.364165702978525
        ]
      }
    },
    {
      "type": "Feature",
      "properties": {
        "norad_id": 66882,
        "name": "STARLINK-35912",
        "group": "last-30-days",
        "lat": 40.18850306152146,
        "lon": 168.41644586854545,
        "alt_km": 341.2325107231227,
        "timestamp": "2025-12-21T22:41:40.166285+00:00",
        "meta_object_name": "STARLINK-35912",
        "meta_object_id": "2025-283E",
        "meta_epoch": "2025-12-21T14:00:01.999872",
        "meta_mean_motion": 15.74181679,
        "meta_eccentricity": 0.00010641,
        "meta_inclination": 53.1571,
        "meta_ra_of_asc_node": 29.5148,
        "meta_arg_of_pericenter": 73.7585,
        "meta_mean_anomaly": 158.3449,
        "meta_ephemeris_type": 0,
        "meta_classification_type": "U",
        "meta_norad_cat_id": 66882,
        "meta_element_set_no": 999,
        "meta_rev_at_epoch": 385,
        "meta_bstar": 3.0827762e-05,
        "meta_mean_motion_dot": 3.886e-05,
        "meta_mean_motion_ddot": 0,
        "tle_line1": "1 66882U 25283E   25355.58335648  .00003886  00000+0  30828-4 0  9991",
        "tle_line2": "2 66882  53.1571  29.5148 0001064  73.7585 158.3449 15.74181679  3858"
      },
      "geometry": {
        "type": "Point",
        "coordinates": [
          168.41644586854545,
          40.18850306152146
        ]
      }
    },
    {
      "type": "Feature",
      "properties": {
        "norad_id": 66883,
        "name": "STARLINK-35947",
        "group": "last-30-days",
        "lat": 38.98570611189333,
        "lon": 170.34927275580063,
        "alt_km": 341.40758709907277,
        "timestamp": "2025-12-21T22:41:40.166312+00:00",
        "meta_object_name": "STARLINK-35947",
        "meta_object_id": "2025-283F",
        "meta_epoch": "2025-12-21T14:00:01.999872",
        "meta_mean_motion": 15.74188436,
        "meta_eccentricity": 0.00010842,
        "meta_inclination": 53.1574,
        "meta_ra_of_asc_node": 29.511,
        "meta_arg_of_pericenter": 76.7901,
        "meta_mean_anomaly": 157.2243,
        "meta_ephemeris_type": 0,
        "meta_classification_type": "U",
        "meta_norad_cat_id": 66883,
        "meta_element_set_no": 999,
        "meta_rev_at_epoch": 389,
        "meta_bstar": -5.1934215e-05,
        "meta_mean_motion_dot": -8.227e-05,
        "meta_mean_motion_ddot": 0,
        "tle_line1": "1 66883U 25283F   25355.58335648 -.00008227  00000+0 -51934-4 0  9999",
        "tle_line2": "2 66883  53.1574  29.5110 0001084  76.7901 157.2243 15.74188436  3890"
      },
      "geometry": {
        "type": "Point",
        "coordinates": [
          170.34927275580063,
          38.98570611189333
        ]
      }
    }
  ]
}